{
  "type": "FeatureCollection",
  "features": [
    {
      "type": "Feature",
      "properties": {
        "norad_id": 34434,
        "name": "COSMOS 2251 DEB",
        "group": "cosmos-2251-debris",
        "lat": -2.3304157624969495,
        "lon": -2.3859633436191623,
        "alt_km": 1074.0025428740282,
        "timestamp": "2025-12-19T16:54:44.657577+00:00",
        "meta_object_name": "COSMOS 2251 DEB",
        "meta_object_id": "1993-036SB",
        "meta_epoch": "2025-12-19T05:26:13.049952",
        "meta_mean_motion": 13.89845222,
        "meta_eccentricity": 0.02740517,
        "meta_inclination": 74.0623,
        "meta_ra_of_asc_node": 359.0933,
        "meta_arg_of_pericenter": 134.8518,
        "meta_mean_anomaly": 353.5996,
        "meta_ephemeris_type": 0,
        "meta_classification_type": "U",
        "meta_norad_cat_id": 34434,
        "meta_element_set_no": 999,
        "meta_rev_at_epoch": 84056,
        "meta_bstar": 0.0013549191,
        "meta_mean_motion_dot": 2.233e-05,
        "meta_mean_motion_ddot": 0,
        "tle_line1": "1 34434U 93036SB  25353.22653993  .00002233  00000+0  13549-2 0  9999",
        "tle_line2": "2 34434  74.0623 359.0933 0274051 134.8518 353.5996 13.89845222840560"
      },
      "geometry": {
        "type": "Point",
        "coordinates": [
          -2.3859633436191623,
          -2.3304157624969495
        ]
      }
    },
    {
      "type": "Feature",
      "properties": {
        "norad_id": 34446,
        "name": "COSMOS 2251 DEB",
        "group": "cosmos-2251-debris",
        "lat": -54.731413835504554,
        "lon": -111.91307563236198,
        "alt_km": 714.8464616979072,
        "timestamp": "2025-12-19T16:54:44.657588+00:00",
        "meta_object_name": "COSMOS 2251 DEB",
        "meta_object_id": "1993-036SP",
        "meta_epoch": "2025-12-19T05:52:48.702432",
        "meta_mean_motion": 14.49359937,
        "meta_eccentricity": 0.00508383,
        "meta_inclination": 74.0419,
        "meta_ra_of_asc_node": 45.0824,
        "meta_arg_of_pericenter": 181.5828,
        "meta_mean_anomaly": 178.518,
        "meta_ephemeris_type": 0,
        "meta_classification_type": "U",
        "meta_norad_cat_id": 34446,
        "meta_element_set_no": 999,
        "meta_rev_at_epoch": 88788,
        "meta_bstar": 9.2699999e-05,
        "meta_mean_motion_dot": 3.32e-06,
        "meta_mean_motion_ddot": 0,
        "tle_line1": "1 34446U 93036SP  25353.24500813  .00000332  00000+0  92700-4 0  9992",
        "tle_line2": "2 34446  74.0419  45.0824 0050838 181.5828 178.5180 14.49359937887881"
      },
      "geometry": {
        "type": "Point",
        "coordinates": [
          -111.91307563236198,
          -54.731413835504554
        ]
      }
    },
    {
      "type": "Feature",
      "properties": {
        "norad_id": 34449,
        "name": "COSMOS 2251 DEB",
        "group": "cosmos-2251-debris",
        "lat": 74.02095248717417,
        "lon": 147.31573318356615,
        "alt_km": 558.4226657346044,
        "timestamp": "2025-12-19T16:54:44.657599+00:00",
        "meta_object_name": "COSMOS 2251 DEB",
        "meta_object_id": "1993-036SS",
        "meta_epoch": "2025-12-19T05:31:05.790432",
        "meta_mean_motion": 14.95222496,
        "meta_eccentricity": 0.00227487,
        "meta_inclination": 74.0328,
        "meta_ra_of_asc_node": 57.4655,
        "meta_arg_of_pericenter": 95.9476,
        "meta_mean_anomaly": 319.8524,
        "meta_ephemeris_type": 0,
        "meta_classification_type": "U",
        "meta_norad_cat_id": 34449,
        "meta_element_set_no": 999,
        "meta_rev_at_epoch": 88790,
        "meta_bstar": 0.0015082952,
        "meta_mean_motion_dot": 0.00016676,
        "meta_mean_motion_ddot": 0,
        "tle_line1": "1 34449U 93036SS  25353.22992813  .00016676  00000+0  15083-2 0  9993",
        "tle_line2": "2 34449  74.0328  57.4655 0022748  95.9476 319.8524 14.95222496887903"
      },
      "geometry": {
        "type": "Point",
        "coordinates": [
          147.31573318356615,
          74.02095248717417
        ]
      }
    },
    {
      "type": "Feature",
      "properties": {
        "norad_id": 34451,
        "name": "COSMOS 2251 DEB",
        "group": "cosmos-2251-debris",
        "lat": 70.51767079480402,
        "lon": 127.77467697181933,
        "alt_km": 555.9644532608081,
        "timestamp": "2025-12-19T16:54:44.657610+00:00",
        "meta_object_name": "COSMOS 2251 DEB",
        "meta_object_id": "1993-036SU",
        "meta_epoch": "2025-12-19T05:19:40.197792",
        "meta_mean_motion": 14.95927956,
        "meta_eccentricity": 0.00238334,
        "meta_inclination": 74.0467,
        "meta_ra_of_asc_node": 74.7893,
        "meta_arg_of_pericenter": 90.4585,
        "meta_mean_anomaly": 269.9331,
        "meta_ephemeris_type": 0,
        "meta_classification_type": "U",
        "meta_norad_cat_id": 34451,
        "meta_element_set_no": 999,
        "meta_rev_at_epoch": 88732,
        "meta_bstar": 0.0016211605,
        "meta_mean_motion_dot": 0.00018267,
        "meta_mean_motion_ddot": 0,
        "tle_line1": "1 34451U 93036SU  25353.22199303  .00018267  00000+0  16212-2 0  9992",
        "tle_line2": "2 34451  74.0467  74.7893 0023833  90.4585 269.9331 14.95927956887323"
      },
      "geometry": {
        "type": "Point",
        "coordinates": [
          127.77467697181933,
          70.51767079480402
        ]
      }
    },
    {
      "type": "Feature",
      "properties": {
        "norad_id": 34452,
        "name": "COSMOS 2251 DEB",
        "group": "cosmos-2251-debris",
        "lat": -27.748891522982678,
        "lon": -2.9327658483124615,
        "alt_km": 498.72062527044454,
        "timestamp": "2025-12-19T16:54:44.657620+00:00",
        "meta_object_name": "COSMOS 2251 DEB",
        "meta_object_id": "1993-036SV",
        "meta_epoch": "2025-12-19T06:41:40.559424",
        "meta_mean_motion": 15.11843497,
        "meta_eccentricity": 0.00652423,
        "meta_inclination": 74.0326,
        "meta_ra_of_asc_node": 169.2845,
        "meta_arg_of_pericenter": 244.164,
        "meta_mean_anomaly": 168.9456,
        "meta_ephemeris_type": 0,
        "meta_classification_type": "U",
        "meta_norad_cat_id": 34452,
        "meta_element_set_no": 999,
        "meta_rev_at_epoch": 90761,
        "meta_bstar": 0.00059119888,
        "meta_mean_motion_dot": 0.00010612,
        "meta_mean_motion_ddot": 0,
        "tle_line1": "1 34452U 93036SV  25353.27894166  .00010612  00000+0  59120-3 0  9999",
        "tle_line2": "2 34452  74.0326 169.2845 0065242 244.1640 168.9456 15.11843497907612"
      },
      "geometry": {
        "type": "Point",
        "coordinates": [
          -2.9327658483124615,
          -27.748891522982678
        ]
      }
    },
    {
      "type": "Feature",
      "properties": {
        "norad_id": 34454,
        "name": "COSMOS 2251 DEB",
        "group": "cosmos-2251-debris",
        "lat": -33.89990894491995,
        "lon": 95.88403803887648,
        "alt_km": 777.1546252652543,
        "timestamp": "2025-12-19T16:54:44.657631+00:00",
        "meta_object_name": "COSMOS 2251 DEB",
        "meta_object_id": "1993-036SX",
        "meta_epoch": "2025-12-19T04:13:51.318624",
        "meta_mean_motion": 14.38818703,
        "meta_eccentricity": 0.00357961,
        "meta_inclination": 74.0588,
        "meta_ra_of_asc_node": 265.7836,
        "meta_arg_of_pericenter": 327.0772,
        "meta_mean_anomaly": 32.8153,
        "meta_ephemeris_type": 0,
        "meta_classification_type": "U",
        "meta_norad_cat_id": 34454,
        "meta_element_set_no": 999,
        "meta_rev_at_epoch": 88160,
        "meta_bstar": 0.00018680463,
        "meta_mean_motion_dot": 5.52e-06,
        "meta_mean_motion_ddot": 0,
        "tle_line1": "1 34454U 93036SX  25353.17628841  .00000552  00000+0  18680-3 0  9993",
        "tle_line2": "2 34454  74.0588 265.7836 0035796 327.0772  32.8153 14.38818703881607"
      },
      "geometry": {
        "type": "Point",
        "coordinates": [
          95.88403803887648,
          -33.89990894491995
        ]
      }
    },
    {
      "type": "Feature",
      "properties": {
        "norad_id": 34459,
        "name": "COSMOS 2251 DEB",
        "group": "cosmos-2251-debris",
        "lat": -23.90833830666378,
        "lon": -125.25848419504834,
        "alt_km": 770.0226888253601,
        "timestamp": "2025-12-19T16:54:44.657641+00:00",
        "meta_object_name": "COSMOS 2251 DEB",
        "meta_object_id": "1993-036TC",
        "meta_epoch": "2025-12-19T03:18:46.968768",
        "meta_mean_motion": 14.00509806,
        "meta_eccentricity": 0.01921149,
        "meta_inclination": 74.0788,
        "meta_ra_of_asc_node": 242.9901,
        "meta_arg_of_pericenter": 311.3354,
        "meta_mean_anomaly": 47.1384,
        "meta_ephemeris_type": 0,
        "meta_classification_type": "U",
        "meta_norad_cat_id": 34459,
        "meta_element_set_no": 999,
        "meta_rev_at_epoch": 85801,
        "meta_bstar": 0.00029607439,
        "meta_mean_motion_dot": 4.91e-06,
        "meta_mean_motion_ddot": 0,
        "tle_line1": "1 34459U 93036TC  25353.13804362  .00000491  00000+0  29607-3 0  9991",
        "tle_line2": "2 34459  74.0788 242.9901 0192114 311.3354  47.1384 14.00509806858018"
      },
      "geometry": {
        "type": "Point",
        "coordinates": [
          -125.25848419504834,
          -23.90833830666378
        ]
      }
    }
  ]
}